     2.100          NAVIGATION                              RINEX VERSION / TYPE
fic2rin                                 09/01/2013 00:14:43 PGM / RUN BY / DATE
                                                            END OF HEADER
29 13  8 31 18  0  0.0  .466830097139D-03  .306954461848D-11  .000000000000D+00
     .590000000000D+02 -.866562500000D+02  .444768526394D-08 -.370505904921D+00
    -.440143048763D-05  .152243801858D-02  .831484794617D-05  .515359448814D+04
     .583200000000D+06  .391155481339D-07  .218776394506D+01  .372529029846D-08
     .966856017434D+00  .224125000000D+03 -.970446615271D+00 -.803212028434D-08
    -.246438836595D-10  .100000000000D+01  .175500000000D+04  .000000000000D+00
     .240000000000D+01  .000000000000D+00 -.931322574615D-08  .590000000000D+02
     .576006000000D+06  .400000000000D+01
31 13  8 31 18  0  0.0  .324808061123D-03  .909494701773D-12  .000000000000D+00
     .430000000000D+02  .726875000000D+02  .395659337942D-08  .324899256787D+00
     .382959842682D-05  .789792451542D-02  .725872814655D-05  .515366240692D+04
     .583200000000D+06 -.130385160446D-07  .698880424546D-01 -.106170773506D-06
     .980312761550D+00  .246562500000D+03 -.735722515419D+00 -.798926135623D-08
     .220009164265D-09  .100000000000D+01  .175500000000D+04  .000000000000D+00
     .240000000000D+01  .000000000000D+00 -.130385160446D-07  .430000000000D+02
     .576006000000D+06  .400000000000D+01
32 13  8 31 18  0  0.0 -.551742035896D-03  .238742359215D-11  .000000000000D+00
     .117000000000D+03 -.146875000000D+01  .512307053931D-08  .788687097286D+00
    -.214204192162D-06  .115953563945D-01  .542774796486D-05  .515360253525D+04
     .583200000000D+06  .232830643654D-06 -.196474507262D+01  .391155481339D-07
     .948572512630D+00  .264843750000D+03 -.308483768170D+00 -.839106380720D-08
    -.239295681911D-09  .100000000000D+01  .175500000000D+04  .000000000000D+00
     .340000000000D+01  .000000000000D+00 -.279396772385D-08  .117000000000D+03
     .576006000000D+06  .400000000000D+01
30 13  8 31 18  0  0.0  .143097713590D-05  .341060513165D-11  .000000000000D+00
     .600000000000D+01  .333750000000D+02  .396837958465D-08 -.126229610957D+01
     .193901360035D-05  .895416864660D-02  .100024044514D-04  .515368468094D+04
     .583200000000D+06  .204890966415D-07 -.896833616194D+00  .203028321266D-06
     .975940086245D+00  .195000000000D+03 -.179229407750D+01 -.779603902203D-08
    -.280725979078D-09  .100000000000D+01  .175500000000D+04  .000000000000D+00
     .340000000000D+01  .630000000000D+02 -.372529029846D-08  .600000000000D+01
     .577056000000D+06  .400000000000D+01
18 13  8 31 17 59 44.0  .271671917289D-03  .193267624127D-11  .000000000000D+00
     .800000000000D+01  .540625000000D+01  .551308678505D-08 -.167080305248D+01
     .312924385071D-06  .146043257555D-01  .515393912792D-05  .515362273407D+04
     .583184000000D+06  .370666384697D-06 -.205314267290D+01 -.931322574615D-08
     .926696699837D+00  .261781250000D+03 -.208139576400D+01 -.839784980415D-08
    -.100718481043D-09  .100000000000D+01  .175500000000D+04  .000000000000D+00
     .240000000000D+01  .000000000000D+00 -.107102096081D-07  .800000000000D+01
     .579096000000D+06  .400000000000D+01
18 13  8 31 19 59 44.0  .271685887128D-03  .193267624127D-11  .000000000000D+00
     .250000000000D+02  .665625000000D+01  .580774191576D-08 -.620627426755D+00
     .422820448875D-06  .146040302934D-01  .548735260963D-05  .515362133789D+04
     .590384000000D+06 -.596046447754D-07 -.205320455726D+01  .227242708206D-06
     .926693548712D+00  .257062500000D+03 -.208135096213D+01 -.889751347429D-08
    -.160363822654D-09  .100000000000D+01  .175500000000D+04  .000000000000D+00
     .240000000000D+01  .000000000000D+00 -.107102096081D-07  .250000000000D+02
     .583206000000D+06  .400000000000D+01
 1 13  8 31 20  0  0.0  .696200877428D-04  .432009983342D-11  .000000000000D+00
     .540000000000D+02  .625000000000D+01  .462912139292D-08  .192100709313D+01
     .391155481339D-06  .228514743503D-02  .943243503571D-05  .515369429588D+04
     .590400000000D+06 -.577419996262D-07 -.309558936009D+01  .106170773506D-06
     .960825169836D+00  .197437500000D+03  .349002709067D+00 -.801247660895D-08
     .335013954676D-09  .100000000000D+01  .175500000000D+04  .000000000000D+00
     .240000000000D+01  .000000000000D+00  .838190317154D-08  .540000000000D+02
     .583206000000D+06  .400000000000D+01
 2 13  8 31 20  0  0.0  .449168961495D-03  .181898940355D-11  .000000000000D+00
     .120000000000D+03  .153125000000D+01  .497913597243D-08  .272307207447D+01
    -.428408384323D-07  .125447022729D-01  .943243503571D-05  .515371772957D+04
     .590400000000D+06 -.111758708954D-06 -.311932662495D+01 -.145286321640D-06
     .939334271271D+00  .184843750000D+03 -.256383571638D+01 -.797890378194D-08
     .339299847486D-09  .100000000000D+01  .175500000000D+04  .000000000000D+00
     .340000000000D+01  .000000000000D+00 -.172294676304D-07  .120000000000D+03
     .583206000000D+06  .400000000000D+01
 3 13  8 31 20  0  0.0  .253401696682D-03  .488853402203D-11  .000000000000D+00
     .670000000000D+02 -.978750000000D+02  .504413868005D-08  .288346895962D+01
    -.518746674061D-05  .166944401572D-01  .661797821522D-05  .515372486687D+04
     .590400000000D+06  .165775418282D-06  .199292425124D+01 -.199303030968D-06
     .935306955815D+00  .237437500000D+03  .132592809404D+01 -.807890794752D-08
    -.107861635727D-09  .100000000000D+01  .175500000000D+04  .000000000000D+00
     .240000000000D+01  .000000000000D+00 -.465661287308D-08  .670000000000D+02
     .583206000000D+06  .400000000000D+01
 4 13  8 31 20  0  0.0  .315003097057D-03  .101181285572D-10  .000000000000D+00
     .410000000000D+02  .931250000000D+01  .520343102950D-08 -.306050506769D+00
     .616535544395D-06  .105072380975D-01  .880472362041D-05  .515359489441D+04
     .590400000000D+06 -.447034835815D-07 -.310299343279D+01  .117346644402D-06
     .938366843546D+00  .197531250000D+03  .101182276179D+01 -.846320966951D-08
     .312155859687D-09  .100000000000D+01  .175500000000D+04  .000000000000D+00
     .240000000000D+01  .000000000000D+00 -.605359673500D-08  .410000000000D+02
     .583206000000D+06  .400000000000D+01
 5 13  8 31 20  0  0.0 -.399664975703D-03  .000000000000D+00  .000000000000D+00
     .620000000000D+02  .290625000000D+01  .510164107526D-08 -.128119583936D+01
     .150874257088D-06  .320407189429D-02  .585056841373D-05  .515368395805D+04
     .590400000000D+06  .279396772385D-07 -.205370351473D+01 -.484287738800D-07
     .948102140580D+00  .260968750000D+03  .257078106918D+00 -.827177312398D-08
    -.136077096729D-09  .100000000000D+01  .175500000000D+04  .000000000000D+00
     .240000000000D+01  .000000000000D+00 -.977888703346D-08  .620000000000D+02
     .583206000000D+06  .400000000000D+01
 6 13  8 31 20  0  0.0  .306069850922D-04  .193267624127D-10  .000000000000D+00
     .620000000000D+02 -.920937500000D+02  .496627829400D-08 -.158527918506D+01
    -.498630106449D-05  .811294873711D-02  .757537782192D-05  .515368317604D+04
     .590400000000D+06 -.372529029846D-07  .207314274823D+01 -.141561031342D-06
     .941925994496D+00  .225250000000D+03 -.236197394410D+00 -.831463205208D-08
     .532165023952D-10  .100000000000D+01  .175500000000D+04  .000000000000D+00
     .240000000000D+01  .000000000000D+00 -.512227416039D-08  .620000000000D+02
     .583206000000D+06  .400000000000D+01
 7 13  8 31 20  0  0.0  .253551173955D-03  .420641299570D-11  .000000000000D+00
     .280000000000D+02  .833750000000D+02  .402588197986D-08  .133532733539D+01
     .443682074547D-05  .688045658171D-02  .730343163013D-05  .515367513657D+04
     .590400000000D+06 -.745058059692D-07  .648880444704D-01  .109896063805D-06
     .975333368767D+00  .246312500000D+03 -.289265368890D+01 -.789568602987D-08
     .796461747257D-10  .100000000000D+01  .175500000000D+04  .000000000000D+00
     .240000000000D+01  .000000000000D+00 -.107102096081D-07  .280000000000D+02
     .583206000000D+06  .400000000000D+01
 8 13  8 31 20  0  0.0  .818446278572D-05  .113686837722D-12  .000000000000D+00
     .600000000000D+02  .770000000000D+02  .358372070492D-08  .765750052998D+00
     .417418777943D-05  .133841211209D-01  .653602182865D-05  .515369831848D+04
     .590400000000D+06  .186264514923D-07  .158224761942D+00  .327825546265D-06
     .998209996002D+00  .272718750000D+03 -.284506609754D+01 -.774210820417D-08
     .131434046184D-09  .100000000000D+01  .175500000000D+04  .000000000000D+00
     .240000000000D+01  .000000000000D+00 -.372529029846D-08  .600000000000D+02
     .583206000000D+06  .400000000000D+01
 9 13  8 31 20  0  0.0  .265221577138D-03  .272848410532D-11  .000000000000D+00
     .147000000000D+03  .853750000000D+02  .371979780165D-08  .251079982896D+01
     .444240868092D-05  .169203489786D-01  .692531466484D-05  .515372545433D+04
     .590400000000D+06  .191852450371D-06  .423685755184D-01  .242143869400D-07
     .983939176010D+00  .252593750000D+03  .172143029794D+01 -.746673959110D-08
     .903609067516D-10  .100000000000D+01  .175500000000D+04  .000000000000D+00
     .340000000000D+01  .000000000000D+00 -.558793544769D-08  .147000000000D+03
     .583206000000D+06  .400000000000D+01
10 13  8 31 20  0  0.0 -.927797518671D-04 -.147792889038D-11  .000000000000D+00
     .145000000000D+03  .140625000000D+01  .524664711534D-08 -.106832042395D+01
     .124797224998D-06  .126814981923D-01  .558793544769D-05  .515364932442D+04
     .590400000000D+06  .266358256340D-06 -.203483600864D+01  .214204192162D-06
     .942909684019D+00  .261000000000D+03  .812781808630D+00 -.840642158977D-08
    -.213937482783D-09  .100000000000D+01  .175500000000D+04  .000000000000D+00
     .340000000000D+01  .000000000000D+00 -.232830643654D-08  .145000000000D+03
     .583206000000D+06  .400000000000D+01
